CCSDS_OMM_VERS = 2.0
CREATION_DATE  = 
ORIGINATOR     = 

OBJECT_NAME    = TRANSPORTER-15CZ
OBJECT_ID      = 2025-276CZ
CENTER_NAME    = EARTH
REF_FRAME      = TEME
TIME_SYSTEM    = UTC
MEAN_ELEMENT_THEORY = SGP/SGP4

EPOCH          = 2025-12-28T03:37:30.527328
MEAN_MOTION    = 15.18601172
ECCENTRICITY   = .0001804
INCLINATION    = 97.4392
RA_OF_ASC_NODE = 73.6827
ARG_OF_PERICENTER = 119.1044
MEAN_ANOMALY   = 241.0371

EPHEMERIS_TYPE = 0
CLASSIFICATION_TYPE = U
NORAD_CAT_ID   = 66761
ELEMENT_SET_NO = 999
REV_AT_EPOCH   = 446
BSTAR          = .69651E-3
MEAN_MOTION_DOT = .14358E-3
MEAN_MOTION_DDOT = 0

CCSDS_OMM_VERS = 2.0
CREATION_DATE  = 
ORIGINATOR     = 

OBJECT_NAME    = HYDROGNSS-1
OBJECT_ID      = 2025-276DA
CENTER_NAME    = EARTH
REF_FRAME      = TEME
TIME_SYSTEM    = UTC
MEAN_ELEMENT_THEORY = SGP/SGP4

EPOCH          = 2025-12-28T04:06:19.146816
MEAN_MOTION    = 15.17344522
ECCENTRICITY   = .000122
INCLINATION    = 97.4404
RA_OF_ASC_NODE = 73.6602
ARG_OF_PERICENTER = 219.9031
MEAN_ANOMALY   = 140.2113

EPHEMERIS_TYPE = 0
CLASSIFICATION_TYPE = U
NORAD_CAT_ID   = 66762
ELEMENT_SET_NO = 999
REV_AT_EPOCH   = 446
BSTAR          = .24772E-3
MEAN_MOTION_DOT = .4877E-4
MEAN_MOTION_DDOT = 0

CCSDS_OMM_VERS = 2.0
CREATION_DATE  = 
ORIGINATOR     = 

OBJECT_NAME    = HYDROGNSS-2
OBJECT_ID      = 2025-276DB
CENTER_NAME    = EARTH
REF_FRAME      = TEME
TIME_SYSTEM    = UTC
MEAN_ELEMENT_THEORY = SGP/SGP4

EPOCH          = 2025-12-28T04:02:46.112064
MEAN_MOTION    = 15.17472512
ECCENTRICITY   = .0001809
INCLINATION    = 97.4408
RA_OF_ASC_NODE = 73.6678
ARG_OF_PERICENTER = 209.9040
MEAN_ANOMALY   = 150.2091

EPHEMERIS_TYPE = 0
CLASSIFICATION_TYPE = U
NORAD_CAT_ID   = 66763
ELEMENT_SET_NO = 999
REV_AT_EPOCH   = 446
BSTAR          = .25267E-3
MEAN_MOTION_DOT = .4994E-4
MEAN_MOTION_DDOT = 0

CCSDS_OMM_VERS = 2.0
CREATION_DATE  = 
ORIGINATOR     = 

OBJECT_NAME    = TRANSPORTER-15DC
OBJECT_ID      = 2025-276DC
CENTER_NAME    = EARTH
REF_FRAME      = TEME
TIME_SYSTEM    = UTC
MEAN_ELEMENT_THEORY = SGP/SGP4

EPOCH          = 2025-12-28T03:55:09.736896
MEAN_MOTION    = 15.17737029
ECCENTRICITY   = .0002526
INCLINATION    = 97.4399
RA_OF_ASC_NODE = 73.6684
ARG_OF_PERICENTER = 177.0327
MEAN_ANOMALY   = 183.0922

EPHEMERIS_TYPE = 0
CLASSIFICATION_TYPE = U
NORAD_CAT_ID   = 66764
ELEMENT_SET_NO = 999
REV_AT_EPOCH   = 446
BSTAR          = .55787E-3
MEAN_MOTION_DOT = .112E-3
MEAN_MOTION_DDOT = 0

CCSDS_OMM_VERS = 2.0
CREATION_DATE  = 
ORIGINATOR     = 

OBJECT_NAME    = TRANSPORTER-15DD
OBJECT_ID      = 2025-276DD
CENTER_NAME    = EARTH
REF_FRAME      = TEME
TIME_SYSTEM    = UTC
MEAN_ELEMENT_THEORY = SGP/SGP4

EPOCH          = 2025-12-28T03:31:21.348768
MEAN_MOTION    = 15.18881617
ECCENTRICITY   = .0002044
INCLINATION    = 97.4417
RA_OF_ASC_NODE = 73.6970
ARG_OF_PERICENTER = 111.6978
MEAN_ANOMALY   = 248.4474

EPHEMERIS_TYPE = 0
CLASSIFICATION_TYPE = U
NORAD_CAT_ID   = 66765
ELEMENT_SET_NO = 999
REV_AT_EPOCH   = 446
BSTAR          = .8506E-3
MEAN_MOTION_DOT = .177E-3
MEAN_MOTION_DDOT = 0

CCSDS_OMM_VERS = 2.0
CREATION_DATE  = 
ORIGINATOR     = 

OBJECT_NAME    = TRANSPORTER-15DE
OBJECT_ID      = 2025-276DE
CENTER_NAME    = EARTH
REF_FRAME      = TEME
TIME_SYSTEM    = UTC
MEAN_ELEMENT_THEORY = SGP/SGP4

EPOCH          = 2025-12-28T03:37:04.826784
MEAN_MOTION    = 15.18487882
ECCENTRICITY   = .000191
INCLINATION    = 97.4358
RA_OF_ASC_NODE = 73.6701
ARG_OF_PERICENTER = 83.5635
MEAN_ANOMALY   = 276.5816

EPHEMERIS_TYPE = 0
CLASSIFICATION_TYPE = U
NORAD_CAT_ID   = 66766
ELEMENT_SET_NO = 999
REV_AT_EPOCH   = 446
BSTAR          = .50038E-3
MEAN_MOTION_DOT = .10257E-3
MEAN_MOTION_DDOT = 0

CCSDS_OMM_VERS = 2.0
CREATION_DATE  = 
ORIGINATOR     = 

OBJECT_NAME    = TRANSPORTER-15DF
OBJECT_ID      = 2025-276DF
CENTER_NAME    = EARTH
REF_FRAME      = TEME
TIME_SYSTEM    = UTC
MEAN_ELEMENT_THEORY = SGP/SGP4

EPOCH          = 2025-12-28T03:38:43.850688
MEAN_MOTION    = 15.18380703
ECCENTRICITY   = .0002028
INCLINATION    = 97.4365
RA_OF_ASC_NODE = 73.6715
ARG_OF_PERICENTER = 85.0617
MEAN_ANOMALY   = 275.0849

EPHEMERIS_TYPE = 0
CLASSIFICATION_TYPE = U
NORAD_CAT_ID   = 66767
ELEMENT_SET_NO = 999
REV_AT_EPOCH   = 446
BSTAR          = .28473E-3
MEAN_MOTION_DOT = .5786E-4
MEAN_MOTION_DDOT = 0

CCSDS_OMM_VERS = 2.0
CREATION_DATE  = 
ORIGINATOR     = 

OBJECT_NAME    = TRANSPORTER-15DG
OBJECT_ID      = 2025-276DG
CENTER_NAME    = EARTH
REF_FRAME      = TEME
TIME_SYSTEM    = UTC
MEAN_ELEMENT_THEORY = SGP/SGP4

EPOCH          = 2025-12-28T03:34:38.371872
MEAN_MOTION    = 15.18616798
ECCENTRICITY   = .0002072
INCLINATION    = 97.4351
RA_OF_ASC_NODE = 73.6707
ARG_OF_PERICENTER = 70.9894
MEAN_ANOMALY   = 289.1564

EPHEMERIS_TYPE = 0
CLASSIFICATION_TYPE = U
NORAD_CAT_ID   = 66768
ELEMENT_SET_NO = 999
REV_AT_EPOCH   = 446
BSTAR          = .70147E-3
MEAN_MOTION_DOT = .14468E-3
MEAN_MOTION_DDOT = 0

CCSDS_OMM_VERS = 2.0
CREATION_DATE  = 
ORIGINATOR     = 

OBJECT_NAME    = TRANSPORTER-15DH
OBJECT_ID      = 2025-276DH
CENTER_NAME    = EARTH
REF_FRAME      = TEME
TIME_SYSTEM    = UTC
MEAN_ELEMENT_THEORY = SGP/SGP4

EPOCH          = 2025-12-28T03:36:33.094656
MEAN_MOTION    = 15.18474455
ECCENTRICITY   = .000274
INCLINATION    = 97.4412
RA_OF_ASC_NODE = 73.6909
ARG_OF_PERICENTER = 98.6160
MEAN_ANOMALY   = 261.5385

EPHEMERIS_TYPE = 0
CLASSIFICATION_TYPE = U
NORAD_CAT_ID   = 66769
ELEMENT_SET_NO = 999
REV_AT_EPOCH   = 446
BSTAR          = .39909E-3
MEAN_MOTION_DOT = .8162E-4
MEAN_MOTION_DDOT = 0

CCSDS_OMM_VERS = 2.0
CREATION_DATE  = 
ORIGINATOR     = 

OBJECT_NAME    = TRANSPORTER-15DJ
OBJECT_ID      = 2025-276DJ
CENTER_NAME    = EARTH
REF_FRAME      = TEME
TIME_SYSTEM    = UTC
MEAN_ELEMENT_THEORY = SGP/SGP4

EPOCH          = 2025-12-28T03:36:13.939776
MEAN_MOTION    = 15.18432993
ECCENTRICITY   = .0003507
INCLINATION    = 97.4443
RA_OF_ASC_NODE = 73.7030
ARG_OF_PERICENTER = 113.2752
MEAN_ANOMALY   = 246.8851

EPHEMERIS_TYPE = 0
CLASSIFICATION_TYPE = U
NORAD_CAT_ID   = 66770
ELEMENT_SET_NO = 999
REV_AT_EPOCH   = 446
BSTAR          = .54449E-3
MEAN_MOTION_DOT = .11152E-3
MEAN_MOTION_DDOT = 0

CCSDS_OMM_VERS = 2.0
CREATION_DATE  = 
ORIGINATOR     = 

OBJECT_NAME    = TRANSPORTER-15DK
OBJECT_ID      = 2025-276DK
CENTER_NAME    = EARTH
REF_FRAME      = TEME
TIME_SYSTEM    = UTC
MEAN_ELEMENT_THEORY = SGP/SGP4

EPOCH          = 2025-12-28T02:00:15.251904
MEAN_MOTION    = 15.18544529
ECCENTRICITY   = .0003099
INCLINATION    = 97.4437
RA_OF_ASC_NODE = 73.6365
ARG_OF_PERICENTER = 104.3064
MEAN_ANOMALY   = 255.8515

EPHEMERIS_TYPE = 0
CLASSIFICATION_TYPE = U
NORAD_CAT_ID   = 66771
ELEMENT_SET_NO = 999
REV_AT_EPOCH   = 445
BSTAR          = .64957E-3
MEAN_MOTION_DOT = .13363E-3
MEAN_MOTION_DDOT = 0

CCSDS_OMM_VERS = 2.0
CREATION_DATE  = 
ORIGINATOR     = 

OBJECT_NAME    = TRANSPORTER-15DL
OBJECT_ID      = 2025-276DL
CENTER_NAME    = EARTH
REF_FRAME      = TEME
TIME_SYSTEM    = UTC
MEAN_ELEMENT_THEORY = SGP/SGP4

EPOCH          = 2025-12-28T03:30:39.818016
MEAN_MOTION    = 15.18783525
ECCENTRICITY   = .000298
INCLINATION    = 97.4429
RA_OF_ASC_NODE = 73.7017
ARG_OF_PERICENTER = 92.1629
MEAN_ANOMALY   = 267.9946

EPHEMERIS_TYPE = 0
CLASSIFICATION_TYPE = U
NORAD_CAT_ID   = 66772
ELEMENT_SET_NO = 999
REV_AT_EPOCH   = 446
BSTAR          = .76053E-3
MEAN_MOTION_DOT = .15771E-3
MEAN_MOTION_DDOT = 0

