TRANSPORTER-15CZ        
1 66761U 25276CZ  25362.15104777  .00014358  00000+0  69651-3 0  9998
2 66761  97.4392  73.6827 0001804 119.1044 241.0371 15.18601172  4462
HYDROGNSS-1             
1 66762U 25276DA  25362.17105494  .00004877  00000+0  24772-3 0  9998
2 66762  97.4404  73.6602 0001220 219.9031 140.2113 15.17344522  4461
HYDROGNSS-2             
1 66763U 25276DB  25362.16858926  .00004994  00000+0  25267-3 0  9993
2 66763  97.4408  73.6678 0001809 209.9040 150.2091 15.17472512  4468
TRANSPORTER-15DC        
1 66764U 25276DC  25362.16330714  .00011200  00000+0  55787-3 0  9992
2 66764  97.4399  73.6684 0002526 177.0327 183.0922 15.17737029  4469
TRANSPORTER-15DD        
1 66765U 25276DD  25362.14677487  .00017700  00000+0  85060-3 0  9990
2 66765  97.4417  73.6970 0002044 111.6978 248.4474 15.18881617  4462
TRANSPORTER-15DE        
1 66766U 25276DE  25362.15075031  .00010257  00000+0  50038-3 0  9996
2 66766  97.4358  73.6701 0001910  83.5635 276.5816 15.18487882  4465
TRANSPORTER-15DF        
1 66767U 25276DF  25362.15189642  .00005786  00000+0  28473-3 0  9990
2 66767  97.4365  73.6715 0002028  85.0617 275.0849 15.18380703  4461
TRANSPORTER-15DG        
1 66768U 25276DG  25362.14905523  .00014468  00000+0  70147-3 0  9996
2 66768  97.4351  73.6707 0002072  70.9894 289.1564 15.18616798  4463
TRANSPORTER-15DH        
1 66769U 25276DH  25362.15038304  .00008162  00000+0  39909-3 0  9997
2 66769  97.4412  73.6909 0002740  98.6160 261.5385 15.18474455  4468
TRANSPORTER-15DJ        
1 66770U 25276DJ  25362.15016134  .00011152  00000+0  54449-3 0  9995
2 66770  97.4443  73.7030 0003507 113.2752 246.8851 15.18432993  4468
TRANSPORTER-15DK        
1 66771U 25276DK  25362.08350986  .00013363  00000+0  64957-3 0  9995
2 66771  97.4437  73.6365 0003099 104.3064 255.8515 15.18544529  4450
TRANSPORTER-15DL        
1 66772U 25276DL  25362.14629419  .00015771  00000+0  76053-3 0  9998
2 66772  97.4429  73.7017 0002980  92.1629 267.9946 15.18783525  4460
